# From MPEC 2026-N12
145P/Shoemaker-Levy,e,11.2774,26.7583,10.4444,4.131218,0.1173781,0.54256271,20.0743,07/22.0/2026,2000,g 13.5,4.0
# From MPC191606
146P/Shoemaker-LINEAR,e,23.1195,53.2957,317.0026,4.020009,0.1222823,0.64767612,87.5185,07/22.0/2026,2000,g 15.0,4.0
# From MPC191606
147P/Kushida-Muramatsu,e,2.3112,91.6678,348.6757,4.010106,0.1227355,0.21138072,117.5875,07/22.0/2026,2000,g 14.0,4.0
# From MPC191606
148P/Anderson-LINEAR,e,3.6582,89.1926,8.1095,3.620374,0.1430784,0.55028434,214.3682,07/22.0/2026,2000,g 16.0,2.0
# From MPC191606
149P/Mueller,e,34.2738,143.6933,30.0068,4.134290,0.1172473,0.32426607,342.8339,07/22.0/2026,2000,g  8.0,8.0
# From MPC191606
150P/LONEOS,e,18.5451,272.0487,246.1411,3.872555,0.1293325,0.54943361,111.3849,07/22.0/2026,2000,g 13.5,4.0
# From MPC191606
151P/Helin,e,4.7216,143.0477,216.1722,5.769810,0.0711151,0.57201719,280.1055,07/22.0/2026,2000,g 10.0,6.0
# From MPC191606
152P/Helin-Lawrence,e,9.8795,91.7767,164.3467,4.486307,0.1037219,0.30638701,171.4250,07/22.0/2026,2000,g 11.5,4.0
# From MPC191606
154P/Brewington,e,17.6417,342.9956,47.8889,4.791224,0.0939798,0.67606378,72.2725,07/22.0/2026,2000,g  2.5,12.0
# From MPC191607
156P/Russell-LINEAR,e,17.2546,35.3165,0.5323,3.462749,0.1529581,0.61463022,316.7682,07/22.0/2026,2000,g 15.5,2.0
# From MPC191607
157P/Tritton,e,12.4244,287.4967,155.2030,3.548652,0.1474378,0.55653549,207.9889,07/22.0/2026,2000,g 10.0,4.0
# From MPEC 2022-VC5
157P-B/Tritton,e,12.4317,287.0591,154.0524,3.102778,0.1803342,0.49970967,254.6766,07/22.0/2026,2000,g 15.7,4.0
# From MPC191607
158P/Kowal-LINEAR,e,7.5072,124.1326,236.0735,5.756817,0.0713560,0.11230235,96.7232,07/22.0/2026,2000,g  9.0,4.0
# From MPC191607
159P/LONEOS,e,23.4701,54.9319,4.7655,5.857390,0.0695261,0.38196505,207.1334,07/22.0/2026,2000,g 10.0,4.0
# From MPC191607
160P/LINEAR,e,15.5888,333.3100,12.7687,3.781405,0.1340369,0.52487127,325.2561,07/22.0/2026,2000,g 15.5,2.0
# From MPEC 2026-O09
161P/Hartley-IRAS,e,95.7911,1.4749,47.0679,7.723344,0.0459194,0.83618962,354.0566,07/22.0/2026,2000,g  8.5,6.0
# From MPC191607
162P/SidingSpring,e,27.5523,30.8669,357.2538,3.091030,0.1813632,0.58281891,11.8162,07/22.0/2026,2000,g 12.0,4.0
# From MPC191607
163P/NEAT,e,12.7244,102.0658,349.6965,3.759152,0.1352288,0.45342525,343.0911,07/22.0/2026,2000,g 14.5,4.0
# From MPEC 2026-O09
164P/Christensen,e,16.2754,88.2582,325.8813,3.649781,0.1413526,0.54134454,59.4692,07/22.0/2026,2000,g 11.0,4.0
# From MPC191608
165P/LINEAR,e,15.9174,0.5745,126.0344,17.82073,0.0131013,0.61954220,124.7755,07/22.0/2026,2000,g 11.5,2.0
# From MPC191608
166P/NEAT,e,15.3803,64.3578,321.9805,13.85814,0.0191050,0.38129027,168.5871,07/22.0/2026,2000,g  5.5,4.0
# From MPC191608
167P/CINEOS,e,19.0730,295.8428,344.1611,16.23492,0.0150671,0.26825331,139.5336,07/22.0/2026,2000,g  9.5,2.0
# From MPC191608
168P/Hergenrother,e,21.5950,355.3774,15.0875,3.586014,0.1451397,0.62107174,8.2312,07/22.0/2026,2000,g 15.5,4.0
# From MPEC 2026-O53
169P/NEAT,e,11.2850,176.0322,218.1372,2.603821,0.2345781,0.76790755,345.5998,07/22.0/2026,2000,g 16.0,2.0
# From MPC191608
170P/Christensen,e,10.1388,142.6407,224.4267,4.187615,0.1150149,0.30590897,137.3639,07/22.0/2026,2000,g 12.0,4.0
# From MPC194201
171P/Spahr,e,21.9546,101.6920,347.0341,3.551510,0.1472599,0.50270403,44.1870,07/22.0/2026,2000,g 13.5,4.0
# From MPEC 2026-O09
172P/Yeung,e,11.2208,30.8726,208.8726,4.225841,0.1134578,0.20533727,29.6857,07/22.0/2026,2000,g 13.0,4.0
# From MPC191608
173P/Mueller,e,16.4925,100.3462,29.4173,5.718602,0.0720724,0.26240449,120.7881,07/22.0/2026,2000,g  7.5,4.0
# From MPC 92985
174P/Echeclus,e,4.3385,173.3755,163.3353,10.75645,0.0279384,0.45406133,115.0190,07/22.0/2026,2000,g  9.4,2.0
# From MPEC 2026-HH0
175P/Hergenrother,e,4.9295,109.7945,74.6062,3.687373,0.1391965,0.37432096,353.9816,07/22.0/2026,2000,g 14.0,4.0
# From MPC 89015
176P/LINEAR,e,0.2311,345.6265,34.4271,3.196686,0.1724464,0.19137760,231.2914,07/22.0/2026,2000,g 15.1,2.0
# From MPEC 2026-O53
178P/Hug-Bell,e,11.0922,102.7836,297.9608,3.632559,0.1423591,0.48203197,312.3700,07/22.0/2026,2000,g 13.5,4.0
# From MPC194201
179P/Jedicke,e,19.8891,115.5047,297.2567,5.938262,0.0681107,0.30484689,103.0426,07/22.0/2026,2000,g  2.5,8.0
# From MPC191609
180P/NEAT,e,16.8596,84.5425,94.6108,3.867066,0.1296080,0.35420913,143.2694,07/22.0/2026,2000,g 11.0,4.0
# From MPC191609
181P/Shoemaker-Levy,e,17.4652,35.4325,336.2898,3.880310,0.1289450,0.69933231,213.6223,07/22.0/2026,2000,g 11.5,4.0
# From MPC191609
182P/LONEOS,e,16.2295,72.4288,54.2596,2.947771,0.1947437,0.66409814,297.9988,07/22.0/2026,2000,g 18.0,4.0
# From MPC194201
183P/Korlevic-Juric,e,18.7374,3.1034,161.0547,4.727880,0.0958748,0.10416937,321.2678,07/22.0/2026,2000,g 12.5,2.0
# From MPC191609
184P/Lovas,e,4.5680,173.2175,186.5691,3.802517,0.1329221,0.54941672,278.7824,07/22.0/2026,2000,g 13.5,4.0
# From MPC191609
185P/Petriew,e,14.0005,214.1238,181.9227,3.100488,0.1805340,0.69901041,199.5925,07/22.0/2026,2000,g 15.0,4.0
# From MPC191609
186P/Garradd,e,28.8201,325.5712,266.2425,4.882661,0.0913522,0.12149061,258.4508,07/22.0/2026,2000,g  7.5,4.0
# From MPC191610
187P/LINEAR,e,13.6688,109.8458,132.3734,4.541650,0.1018318,0.15676181,302.3460,07/22.0/2026,2000,g  9.0,4.0
# From MPC194201
188P/LINEAR-Mueller,e,10.5262,358.9109,26.8590,4.362367,0.1081735,0.41635397,10.7784,07/22.0/2026,2000,g 11.5,4.0
# From MPC194201
190P/Mueller,e,2.1798,335.3958,50.3393,4.223124,0.1135673,0.52363874,65.2965,07/22.0/2026,2000,g 13.0,4.0
# From MPC191610
191P/McNaught,e,8.8391,98.1799,284.2321,3.642114,0.1417992,0.38470486,276.6256,07/22.0/2026,2000,g 13.0,4.0
# From MPC191610
193P/LINEAR-NEAT,e,10.6769,335.1791,8.0652,3.580911,0.1454500,0.39239079,261.0465,07/22.0/2026,2000,g 14.0,4.0
# From MPC191610
194P/LINEAR,e,11.8034,349.4812,128.6932,4.124831,0.1176508,0.56334026,105.7173,07/22.0/2026,2000,g 16.0,4.0
# From MPEC 2026-O09
195P/Hill,e,36.4153,243.0845,250.7033,6.438233,0.0603329,0.31020296,21.0965,07/22.0/2026,2000,g  8.5,4.0
# From MPC191610
196P/Tichy,e,19.2857,24.1241,12.1471,3.807743,0.1326486,0.42698608,180.7392,07/22.0/2026,2000,g 13.5,4.0
# From MPC191611
197P/LINEAR,e,25.1219,66.0237,190.0237,2.913406,0.1981995,0.61642466,263.1915,07/22.0/2026,2000,g 16.5,2.0
# From MPC191611
198P/ODAS,e,1.3396,358.3096,69.2734,3.632815,0.1423440,0.44825238,34.5756,07/22.0/2026,2000,g 12.5,4.0
# From MPC191611
199P/Shoemaker,e,24.9420,92.3373,191.7020,5.868244,0.0693333,0.50409362,74.8925,07/22.0/2026,2000,g 10.0,4.0
# From MPC191611
200P/Larsen,e,12.0936,234.7372,134.4034,4.956349,0.0893226,0.33045529,228.0585,07/22.0/2026,2000,g  9.0,4.0
# From MPC191611
201P/LONEOS,e,5.7331,19.6615,41.6708,3.354328,0.1604337,0.63731076,301.7040,07/22.0/2026,2000,g 14.0,4.0
# From MPC191611
202P/Scotti,e,2.1415,177.2972,274.5699,4.100079,0.1187178,0.25081118,94.4502,07/22.0/2026,2000,g 13.5,4.0
# From MPC191611
203P/Korlevic,e,2.9760,290.2202,154.9926,4.668551,0.0977082,0.31619451,227.3143,07/22.0/2026,2000,g 14.5,2.0
# From MPC191611
204P/LINEAR-NEAT,e,6.5981,108.4721,356.7623,3.584582,0.1452267,0.48821643,194.9423,07/22.0/2026,2000,g 14.0,4.0
# From MPC191611
205P/Giacobini,e,15.3016,179.6236,154.1204,3.543518,0.1477584,0.56730047,244.1563,07/22.0/2026,2000,g 13.0,4.0
# From MPC191612
207P/NEAT,e,10.1957,198.0885,273.1005,3.887644,0.1285803,0.75847520,115.9812,07/22.0/2026,2000,g 16.0,4.0
# From MPC191612
208P/McMillan,e,4.3929,35.8547,312.0895,4.066773,0.1201792,0.37468360,83.4143,07/22.0/2026,2000,g 12.5,4.0
# From MPC191612
209P/LINEAR,e,21.2906,62.7412,152.4774,2.956850,0.1938475,0.67430938,142.9441,07/22.0/2026,2000,g 17.0,2.0
# From MPEC 2026-O09
210P/Christensen,e,10.2870,93.7981,345.9496,3.160061,0.1754530,0.83401951,42.3337,07/22.0/2026,2000,g 13.5,4.0
# From MPC191612
211P/Hill,e,18.9259,117.0997,4.3956,3.548687,0.1474357,0.34458878,204.2181,07/22.0/2026,2000,g 12.5,4.0
# From MPC191612
212P/NEAT,e,22.1471,97.9730,14.1037,3.905034,0.1277224,0.58668065,104.4494,07/22.0/2026,2000,g 17.0,2.0
# From MPC191612
213P/VanNess,e,10.8222,310.1890,8.7162,3.361806,0.1598988,0.42038075,153.3378,07/22.0/2026,2000,g 10.5,4.0
# From MPC191612
214P/LINEAR,e,15.1960,348.2256,190.1224,3.615231,0.1433838,0.48676608,199.8315,07/22.0/2026,2000,g 13.0,4.0
# From MPEC 2026-N12
215P/NEAT,e,10.5751,56.6851,262.0599,4.337920,0.1090892,0.16486534,266.7172,07/22.0/2026,2000,g 11.0,4.0
# From MPC191612
216P/LINEAR,e,9.0631,359.7552,151.8216,3.861082,0.1299094,0.44918794,120.3900,07/22.0/2026,2000,g 13.0,4.0
# From MPEC 2026-N12
217P/LINEAR,e,12.8733,125.3722,246.9450,3.944870,0.1257926,0.68991933,53.1911,07/22.0/2026,2000,g 12.0,4.0
# From MPEC 2026-J34
218P/LINEAR,e,2.7265,174.7216,61.4000,3.059451,0.1841785,0.63088458,25.7297,07/22.0/2026,2000,g 16.0,4.0
# From MPC191613
219P/LINEAR,e,11.3752,229.3715,109.5889,3.658593,0.1408422,0.36035558,124.3945,07/22.0/2026,2000,g 11.0,4.0
# From MPEC 2026-O53
220P/McNaught,e,8.1208,150.0837,180.5624,3.120733,0.1787801,0.50034037,6.7724,07/22.0/2026,2000,g 15.0,4.0
# From MPC191613
221P/LINEAR,e,10.2674,220.6963,47.8654,3.380855,0.1585493,0.52145054,261.3740,07/22.0/2026,2000,g 14.5,4.0
# From MPEC 2026-N12
223P/Skiff,e,27.0077,346.6844,37.9832,4.158342,0.1162315,0.41600581,317.2398,07/22.0/2026,2000,g 12.0,4.0
# From MPC191613
224P/LINEAR-NEAT,e,13.2954,40.0322,16.8395,3.448347,0.1539173,0.40510271,214.1298,07/22.0/2026,2000,g 15.5,4.0
# From MPC191613
226P/Pigott-LINEAR-Kowalski,e,44.0378,54.0252,341.0364,3.765754,0.1348733,0.52850091,126.5458,07/22.0/2026,2000,g 12.5,4.0
# From MPC191614
227P/Catalina-LINEAR,e,7.5062,36.7726,105.6439,3.438260,0.1545952,0.52783089,133.7944,07/22.0/2026,2000,g 16.5,2.0
# From MPC191614
228P/LINEAR,e,7.9184,30.9489,114.9703,4.159623,0.1161778,0.17785860,269.7834,07/22.0/2026,2000,g 14.5,2.0
# From MPC191614
229P/Gibbs,e,26.1368,157.7829,224.4281,3.930703,0.1264733,0.37919791,63.5568,07/22.0/2026,2000,g 13.0,4.0
# From MPC191614
230P/LINEAR,e,15.4722,106.9251,313.5901,3.455709,0.1534258,0.54508181,243.2366,07/22.0/2026,2000,g 13.0,4.0
